0 IRIDIUM 116
1 43072U 17083C   24008.96869120  .00000462  00000-0  15774-3 0  9999
2 43072  86.3979 334.0647 0002204  89.6439 270.5010 14.34217216316572
0 IRIDIUM 130
1 43073U 17083D   24008.93698139  .00000362  00000-0  12225-3 0  9994
2 43073  86.3989 334.2668 0002227  82.3189 277.8259 14.34218365316511
0 IRIDIUM 151
1 43074U 17083E   24008.91160993  .00000490  00000-0  16790-3 0  9998
2 43074  86.3982 334.1262 0002412  91.0145 269.1328 14.34217238316530
0 IRIDIUM 134
1 43075U 17083F   24008.81012707  .00000225  00000-0  73316-4 0  9991
2 43075  86.3983 334.1643 0002135  80.2407 279.9030 14.34218763316485
0 IRIDIUM 137
1 43076U 17083G   24008.96234685  .00000378  00000-0  12775-3 0  9999
2 43076  86.3984 334.1759 0002023  96.3204 263.8222 14.34216958316573
0 IRIDIUM 141
1 43077U 17083H   24008.95600842  .00000424  00000-0  14443-3 0  9997
2 43077  86.3980 334.0595 0002351  86.5789 273.5676 14.34217749316570
0 IRIDIUM 153
1 43078U 17083J   24008.90818738  .00000030  00000-0  35073-5 0  9995
2 43078  86.3978 302.5325 0002571  86.8082 273.3407 14.34217868317676
0 IRIDIUM 131
1 43079U 17083K   24008.94332415  .00000387  00000-0  13122-3 0  9997
2 43079  86.3986 334.1916 0002264  87.5980 272.5475 14.34216396316509
